start=new Date('2022-04-06T00:00:00.000Z').valueOf();
sats=[{"TLE_LINE1":"1 50848U 22001AX  22095.91667824 -.00000363  00000-0 -46922-5 0  9993","TLE_LINE2":"2 50848  53.2153 135.5611 0001931  35.7025 102.3820 15.08818596  3622","MEAN_MOTION_DDOT":"0.0000000000000","INCLINATION":"53.2153","RA_OF_ASC_NODE":"135.5611","EPOCH":"2022-04-05T22:00:00.999936","LAUNCH_DATE":"2022-01-06","PERIAPSIS":"538.475","NORAD_CAT_ID":"50848","OBJECT_TYPE":"PAYLOAD","FILE":"3389912","MEAN_ELEMENT_THEORY":"SGP4","COUNTRY_CODE":"US","APOAPSIS":"541.147","MEAN_MOTION":"15.08818596","GP_ID":"200545576","REF_FRAME":"TEME","MEAN_ANOMALY":"102.3820","PERIOD":"95.439","ARG_OF_PERICENTER":"35.7025","ECCENTRICITY":"0.00019310","SEMIMAJOR_AXIS":"6917.946","SITE":"AFETR","OBJECT_ID":"2022-001AX","DECAY_DATE":null,"OBJECT_NAME":"STARLINK-3315","MEAN_MOTION_DOT":"-0.00000363","TIME_SYSTEM":"UTC","RCS_SIZE":"LARGE","EPHEMERIS_TYPE":"0","REV_AT_EPOCH":"362","CLASSIFICATION_TYPE":"U","BSTAR":"-0.00000469220000","ELEMENT_SET_NO":"999","CENTER_NAME":"EARTH"},{"REV_AT_EPOCH":"362","EPHEMERIS_TYPE":"0","CLASSIFICATION_TYPE":"U","MEAN_MOTION_DOT":"-0.00006062","TIME_SYSTEM":"UTC","RCS_SIZE":"LARGE","BSTAR":"-0.00036329000000","ELEMENT_SET_NO":"999","CENTER_NAME":"EARTH","REF_FRAME":"TEME","MEAN_ANOMALY":"45.4872","PERIOD":"95.439","ARG_OF_PERICENTER":"32.5907","MEAN_MOTION":"15.08820866","GP_ID":"200545828","DECAY_DATE":null,"OBJECT_NAME":"STARLINK-3311","ECCENTRICITY":"0.00019390","SEMIMAJOR_AXIS":"6917.939","SITE":"AFETR","OBJECT_ID":"2022-001AY","NORAD_CAT_ID":"50849","OBJECT_TYPE":"PAYLOAD","LAUNCH_DATE":"2022-01-06","PERIAPSIS":"538.462","APOAPSIS":"541.145","FILE":"3389912","MEAN_ELEMENT_THEORY":"SGP4","COUNTRY_CODE":"US","TLE_LINE2":"2 50849  53.2158 135.5621 0001939  32.5907  45.4872 15.08820866  3628","MEAN_MOTION_DDOT":"0.0000000000000","TLE_LINE1":"1 50849U 22001AY  22095.91667824 -.00006062  00000-0 -36329-3 0  9994","INCLINATION":"53.2158","RA_OF_ASC_NODE":"135.5621","EPOCH":"2022-04-05T22:00:00.999936"},{"RA_OF_ASC_NODE":"118.4704","EPOCH":"2022-04-05T22:00:00.999936","TLE_LINE2":"2 50850  53.2153 118.4704 0005447 303.6170  65.2004 15.73144456  3723","TLE_LINE1":"1 50850U 22001AZ  22095.91667824 -.00015304  00000-0 -10493-3 0  9999","MEAN_MOTION_DDOT":"0.0000000000000","INCLINATION":"53.2153","APOAPSIS":"353.583","FILE":"3389912","MEAN_ELEMENT_THEORY":"SGP4","COUNTRY_CODE":"US","NORAD_CAT_ID":"50850","OBJECT_TYPE":"PAYLOAD","LAUNCH_DATE":"2022-01-06","PERIAPSIS":"346.254","DECAY_DATE":null,"OBJECT_NAME":"STARLINK-3312","ECCENTRICITY":"0.00054470","SITE":"AFETR","SEMIMAJOR_AXIS":"6728.054","OBJECT_ID":"2022-001AZ","REF_FRAME":"TEME","PERIOD":"91.536","ARG_OF_PERICENTER":"303.6170","MEAN_ANOMALY":"65.2004","MEAN_MOTION":"15.73144456","GP_ID":"200546578","BSTAR":"-0.00010493000000","ELEMENT_SET_NO":"999","CENTER_NAME":"EARTH","REV_AT_EPOCH":"372","EPHEMERIS_TYPE":"0","CLASSIFICATION_TYPE":"U","MEAN_MOTION_DOT":"-0.00015304","TIME_SYSTEM":"UTC","RCS_SIZE":"LARGE"},{"APOAPSIS":"541.089","COUNTRY_CODE":"US","FILE":"3389912","MEAN_ELEMENT_THEORY":"SGP4","OBJECT_TYPE":"PAYLOAD","NORAD_CAT_ID":"50851","PERIAPSIS":"538.521","LAUNCH_DATE":"2022-01-06","EPOCH":"2022-04-05T22:00:00.999936","RA_OF_ASC_NODE":"135.5595","INCLINATION":"53.2159","MEAN_MOTION_DDOT":"0.0000000000000","TLE_LINE2":"2 50851  53.2159 135.5595 0001856  35.1617 122.9358 15.08820387  3614","TLE_LINE1":"1 50851U 22001BA  22095.91667824 -.00000716  00000-0 -26891-4 0  9991","ELEMENT_SET_NO":"999","CENTER_NAME":"EARTH","BSTAR":"-0.00002689100000","EPHEMERIS_TYPE":"0","REV_AT_EPOCH":"361","CLASSIFICATION_TYPE":"U","TIME_SYSTEM":"UTC","RCS_SIZE":"LARGE","MEAN_MOTION_DOT":"-0.00000716","DECAY_DATE":null,"OBJECT_NAME":"STARLINK-3314","SEMIMAJOR_AXIS":"6917.940","SITE":"AFETR","OBJECT_ID":"2022-001BA","ECCENTRICITY":"0.00018560","PERIOD":"95.439","MEAN_ANOMALY":"122.9358","ARG_OF_PERICENTER":"35.1617","REF_FRAME":"TEME","GP_ID":"200544827","MEAN_MOTION":"15.08820387"},{"CLASSIFICATION_TYPE":"U","REV_AT_EPOCH":"370","EPHEMERIS_TYPE":"0","MEAN_MOTION_DOT":"-0.00712975","RCS_SIZE":"LARGE","TIME_SYSTEM":"UTC","BSTAR":"-0.00789520000000","CENTER_NAME":"EARTH","ELEMENT_SET_NO":"999","REF_FRAME":"TEME","ARG_OF_PERICENTER":"66.6405","PERIOD":"92.037","MEAN_ANOMALY":"2.6178","MEAN_MOTION":"15.64585369","GP_ID":"200544853","OBJECT_NAME":"STARLINK-3366","DECAY_DATE":null,"ECCENTRICITY":"0.00010900","OBJECT_ID":"2022-005A","SITE":"AFETR","SEMIMAJOR_AXIS":"6752.568","NORAD_CAT_ID":"51104","OBJECT_TYPE":"PAYLOAD","PERIAPSIS":"373.697","LAUNCH_DATE":"2022-01-19","APOAPSIS":"375.170","MEAN_ELEMENT_THEORY":"SGP4","FILE":"3389912","COUNTRY_CODE":"US","TLE_LINE2":"2 51104  53.2173 254.2135 0001090  66.6405   2.6178 15.64585369  3709","MEAN_MOTION_DDOT":"0.0000000000000","TLE_LINE1":"1 51104U 22005A   22095.91667824 -.00712975  00000-0 -78952-2 0  9997","INCLINATION":"53.2173","RA_OF_ASC_NODE":"254.2135","EPOCH":"2022-04-05T22:00:00.999936"},{"LAUNCH_DATE":"2022-01-19","PERIAPSIS":"370.775","NORAD_CAT_ID":"51105","OBJECT_TYPE":"PAYLOAD","FILE":"3389912","MEAN_ELEMENT_THEORY":"SGP4","COUNTRY_CODE":"US","APOAPSIS":"372.515","TLE_LINE2":"2 51105  53.2173 254.2262 0001289  48.0886  32.8117 15.65554955  3715","MEAN_MOTION_DDOT":"0.0000000000000","TLE_LINE1":"1 51105U 22005B   22095.91667824 -.00712608  00000-0 -75891-2 0  9990","INCLINATION":"53.2173","RA_OF_ASC_NODE":"254.2262","EPOCH":"2022-04-05T22:00:00.999936","MEAN_MOTION_DOT":"-0.00712608","RCS_SIZE":"LARGE","TIME_SYSTEM":"UTC","CLASSIFICATION_TYPE":"U","REV_AT_EPOCH":"371","EPHEMERIS_TYPE":"0","BSTAR":"-0.00758910000000","CENTER_NAME":"EARTH","ELEMENT_SET_NO":"999","MEAN_MOTION":"15.65554955","GP_ID":"200545103","REF_FRAME":"TEME","MEAN_ANOMALY":"32.8117","PERIOD":"91.980","ARG_OF_PERICENTER":"48.0886","ECCENTRICITY":"0.00012890","OBJECT_ID":"2022-005B","SEMIMAJOR_AXIS":"6749.780","SITE":"AFETR","OBJECT_NAME":"STARLINK-3350","DECAY_DATE":null},{"SITE":"AFETR","SEMIMAJOR_AXIS":"6754.408","OBJECT_ID":"2022-005C","ECCENTRICITY":"0.00011420","DECAY_DATE":null,"OBJECT_NAME":"STARLINK-3176","GP_ID":"200546354","MEAN_MOTION":"15.63946240","MEAN_ANOMALY":"354.4642","PERIOD":"92.075","ARG_OF_PERICENTER":"58.1903","REF_FRAME":"TEME","ELEMENT_SET_NO":"999","CENTER_NAME":"EARTH","BSTAR":"-0.00810170000000","TIME_SYSTEM":"UTC","RCS_SIZE":"LARGE","MEAN_MOTION_DOT":"-0.00713206","REV_AT_EPOCH":"370","EPHEMERIS_TYPE":"0","CLASSIFICATION_TYPE":"U","EPOCH":"2022-04-05T22:00:00.999936","RA_OF_ASC_NODE":"254.2162","INCLINATION":"53.2172","TLE_LINE1":"1 51106U 22005C   22095.91667824 -.00713206  00000-0 -81017-2 0  9993","TLE_LINE2":"2 51106  53.2172 254.2162 0001142  58.1903 354.4642 15.63946240  3709","MEAN_MOTION_DDOT":"0.0000000000000","COUNTRY_CODE":"US","FILE":"3389912","MEAN_ELEMENT_THEORY":"SGP4","APOAPSIS":"377.044","LAUNCH_DATE":"2022-01-19","PERIAPSIS":"375.502","OBJECT_TYPE":"PAYLOAD","NORAD_CAT_ID":"51106"},{"TIME_SYSTEM":"UTC","RCS_SIZE":"LARGE","MEAN_MOTION_DOT":"-0.00714497","EPHEMERIS_TYPE":"0","REV_AT_EPOCH":"369","CLASSIFICATION_TYPE":"U","ELEMENT_SET_NO":"999","CENTER_NAME":"EARTH","BSTAR":"-0.02080900000000","GP_ID":"200546105","MEAN_MOTION":"15.37354717","PERIOD":"93.667","ARG_OF_PERICENTER":"38.0647","MEAN_ANOMALY":"36.8990","REF_FRAME":"TEME","SEMIMAJOR_AXIS":"6832.072","SITE":"AFETR","OBJECT_ID":"2022-005D","ECCENTRICITY":"0.00016250","DECAY_DATE":null,"OBJECT_NAME":"STARLINK-3368","PERIAPSIS":"452.827","LAUNCH_DATE":"2022-01-19","OBJECT_TYPE":"PAYLOAD","NORAD_CAT_ID":"51107","COUNTRY_CODE":"US","MEAN_ELEMENT_THEORY":"SGP4","FILE":"3389912","APOAPSIS":"455.047","INCLINATION":"53.2174","MEAN_MOTION_DDOT":"0.0000000000000","TLE_LINE2":"2 51107  53.2174 257.2936 0001625  38.0647  36.8990 15.37354717  3690","TLE_LINE1":"1 51107U 22005D   22095.91667824 -.00714497  00000-0 -20809-1 0  9998","EPOCH":"2022-04-05T22:00:00.999936","RA_OF_ASC_NODE":"257.2936"},{"MEAN_MOTION_DOT":"-0.00712716","TIME_SYSTEM":"UTC","RCS_SIZE":"LARGE","REV_AT_EPOCH":"370","EPHEMERIS_TYPE":"0","CLASSIFICATION_TYPE":"U","BSTAR":"-0.00755150000000","ELEMENT_SET_NO":"999","CENTER_NAME":"EARTH","MEAN_MOTION":"15.65682844","GP_ID":"200545353","REF_FRAME":"TEME","PERIOD":"91.973","MEAN_ANOMALY":"28.2223","ARG_OF_PERICENTER":"55.5919","ECCENTRICITY":"0.00012000","SITE":"AFETR","SEMIMAJOR_AXIS":"6749.413","OBJECT_ID":"2022-005E","DECAY_DATE":null,"OBJECT_NAME":"STARLINK-3362","PERIAPSIS":"370.468","LAUNCH_DATE":"2022-01-19","NORAD_CAT_ID":"51108","OBJECT_TYPE":"PAYLOAD","MEAN_ELEMENT_THEORY":"SGP4","FILE":"3389912","COUNTRY_CODE":"US","APOAPSIS":"372.088","TLE_LINE1":"1 51108U 22005E   22095.91667824 -.00712716  00000-0 -75515-2 0  9996","TLE_LINE2":"2 51108  53.2174 254.2250 0001200  55.5919  28.2223 15.65682844  3704","MEAN_MOTION_DDOT":"0.0000000000000","INCLINATION":"53.2174","RA_OF_ASC_NODE":"254.2250","EPOCH":"2022-04-05T22:00:00.999936"},{"CENTER_NAME":"EARTH","ELEMENT_SET_NO":"999","BSTAR":"-0.00625680000000","CLASSIFICATION_TYPE":"U","REV_AT_EPOCH":"370","EPHEMERIS_TYPE":"0","RCS_SIZE":"LARGE","TIME_SYSTEM":"UTC","MEAN_MOTION_DOT":"-0.00417952","OBJECT_NAME":"STARLINK-3358","DECAY_DATE":null,"OBJECT_ID":"2022-005F","SEMIMAJOR_AXIS":"6777.968","SITE":"AFETR","ECCENTRICITY":"0.00016620","PERIOD":"92.557","MEAN_ANOMALY":"204.6675","ARG_OF_PERICENTER":"40.5099","REF_FRAME":"TEME","GP_ID":"200545603","MEAN_MOTION":"15.55798878","APOAPSIS":"400.960","COUNTRY_CODE":"US","FILE":"3389912","MEAN_ELEMENT_THEORY":"SGP4","OBJECT_TYPE":"PAYLOAD","NORAD_CAT_ID":"51109","PERIAPSIS":"398.707","LAUNCH_DATE":"2022-01-19","EPOCH":"2022-04-05T22:00:00.999936","RA_OF_ASC_NODE":"254.5318","INCLINATION":"53.2172","TLE_LINE1":"1 51109U 22005F   22095.91667824 -.00417952  00000-0 -62568-2 0  9995","TLE_LINE2":"2 51109  53.2172 254.5318 0001662  40.5099 204.6675 15.55798878  3701","MEAN_MOTION_DDOT":"0.0000000000000"}];
